*******************************************************************************
 Revised: April 12, 2021                 Earth                              399
 
 GEOPHYSICAL PROPERTIES (revised Aug 15, 2018):
  Vol. Mean Radius (km)    = 6371.01+-0.02   Mass x10^24 (kg)= 5.97219+-0.0006
  Equ. radius, km          = 6378.137        Mass layers:
  Polar axis, km           = 6356.752          Atmos         = 5.1   x 10^18 kg
  Flattening               = 1/298.257223563   oceans        = 1.4   x 10^21 kg
  Density, g/cm^3          = 5.51              crust         = 2.6   x 10^22 kg
  J2 (IERS 2010)           = 0.00108262545     mantle        = 4.043 x 10^24 kg
  g_p, m/s^2  (polar)      = 9.8321863685      outer core    = 1.835 x 10^24 kg
  g_e, m/s^2  (equatorial) = 9.7803267715      inner core    = 9.675 x 10^22 kg
  g_o, m/s^2               = 9.82022         Fluid core rad  = 3480 km
  GM, km^3/s^2             = 398600.435436   Inner core rad  = 1215 km
  GM 1-sigma, km^3/s^2     =      0.0014     Escape velocity = 11.186 km/s
  Rot. Rate (rad/s)        = 0.00007292115   Surface area:
  Mean sidereal day, hr    = 23.9344695944     land          = 1.48 x 10^8 km
  Mean solar day 2000.0, s = 86400.002         sea           = 3.62 x 10^8 km
  Mean solar day 1820.0, s = 86400.0         Love no., k2    = 0.299
  Moment of inertia        = 0.3308          Atm. pressure   = 1.0 bar
  Mean temperature, K      = 270             Volume, km^3    = 1.08321 x 10^12
  Mean effect. IR temp, K  = 255             Magnetic moment = 0.61 gauss Rp^3
  Geometric albedo         = 0.367           Vis. mag. V(1,0)= -3.86
  Solar Constant (W/m^2)   = 1367.6 (mean), 1414 (perihelion), 1322 (aphelion)
 HELIOCENTRIC ORBIT CHARACTERISTICS:
  Obliquity to orbit, deg  = 23.4392911  Sidereal orb period  = 1.0000174 y
  Orbital speed, km/s      = 29.79       Sidereal orb period  = 365.25636 d
  Mean daily motion, deg/d = 0.9856474   Hill's sphere radius = 234.9       
*******************************************************************************
 
 
*******************************************************************************
Ephemeris / WWW_USER Tue Sep  7 13:13:22 2021 Pasadena, USA      / Horizons
*******************************************************************************
Target body name: Earth (399)                     {source: DE441}
Center body name: Sun (10)                        {source: DE441}
Center-site name: BODY CENTER
*******************************************************************************
Start time      : A.D. 2007-Sep-28 00:00:00.0000 TDB
Stop  time      : A.D. 2008-Sep-28 00:00:00.0000 TDB
Step-size       : 1440 minutes
*******************************************************************************
Center geodetic : 0.00000000,0.00000000,0.0000000 {E-lon(deg),Lat(deg),Alt(km)}
Center cylindric: 0.00000000,0.00000000,0.0000000 {E-lon(deg),Dxy(km),Dz(km)}
Center radii    : 696000.0 x 696000.0 x 696000.0 k{Equator, meridian, pole}    
Output units    : KM-S
Output type     : GEOMETRIC cartesian states
Output format   : 3 (position, velocity, LT, range, range-rate)
Reference frame : Ecliptic of J2000.0
*******************************************************************************
            JDTDB,            Calendar Date (TDB),                      X,                      Y,                      Z,                     VX,                     VY,                     VZ,                     LT,                     RG,                     RR,
**************************************************************************************************************************************************************************************************************************************************************************
$$SOE
2454440.500000000, A.D. 2007-Dec-06 00:00:00.0000,  4.221525705439831E+07,  1.412401238960932E+08, -2.305158101402223E+03, -2.903399906557676E+01,  8.428155929503339E+00,  4.086131010581084E-04,  4.917203239103940E+02,  1.474140445536532E+08, -2.393526832574933E-01,
2454441.500000000, A.D. 2007-Dec-07 00:00:00.0000,  3.970023162348206E+07,  1.419463709870314E+08, -2.278288409844041E+03, -2.918263635351378E+01,  7.919631328315331E+00,  2.104167286431924E-04,  4.916522109535367E+02,  1.473936248028953E+08, -2.333513171561210E-01,
2454442.500000000, A.D. 2007-Dec-08 00:00:00.0000,  3.717276645749054E+07,  1.426085487073735E+08, -2.269189041212201E+03, -2.932193494449500E+01,  7.408069594572977E+00, -1.333143972992445E-06,  4.915858087636256E+02,  1.473737179271652E+08, -2.274719443646892E-01,
2454443.500000000, A.D. 2007-Dec-09 00:00:00.0000,  3.463367368237022E+07,  1.432264046912868E+08, -2.278658146210015E+03, -2.945177505564152E+01,  6.893705496589061E+00, -2.179030712450292E-04,  4.915210899375544E+02,  1.473543157112185E+08, -2.216596963073042E-01,
2454444.500000000, A.D. 2007-Dec-10 00:00:00.0000,  3.208377520309874E+07,  1.437997074610066E+08, -2.306714255817235E+03, -2.957205062588715E+01,  6.376787823917875E+00, -4.300005663120388E-04,  4.914580438295346E+02,  1.473354149635279E+08, -2.158530586234396E-01,
2454445.500000000, A.D. 2007-Dec-11 00:00:00.0000,  2.952390137363563E+07,  1.443282476300391E+08, -2.352555184051394E+03, -2.968267274287157E+01,  5.857578982879387E+00, -6.279612251298694E-04,  4.913966784974477E+02,  1.473170180997856E+08, -2.099838262721795E-01,
2454446.500000000, A.D. 2007-Dec-12 00:00:00.0000,  2.695488935881028E+07,  1.448118390153084E+08, -2.414538024052978E+03, -2.978357324276638E+01,  5.336353297638476E+00, -8.020450113359612E-04,  4.913370225203687E+02,  1.472991336877827E+08, -2.039780147619527E-01,
2454447.500000000, A.D. 2007-Dec-13 00:00:00.0000,  2.437758119758096E+07,  1.452503195522252E+08, -2.490188157089055E+03, -2.987470795652463E+01,  4.813394200473937E+00, -9.428044978405659E-04,  4.912791264453733E+02,  1.472817768811512E+08, -1.977574652040828E-01,
2454448.500000000, A.D. 2007-Dec-14 00:00:00.0000,  2.179282161034553E+07,  1.456435519323236E+08, -2.576241740129888E+03, -2.995605938363096E+01,  4.288990684013778E+00, -1.041486312443496E-03,  4.912230637134326E+02,  1.472649696969406E+08, -1.912418020851182E-01,
2454449.500000000, A.D. 2007-Dec-15 00:00:00.0000,  1.920145559569716E+07,  1.459914239138346E+08, -2.668723603226244E+03, -3.002763894404013E+01,  3.763433301943955E+00, -1.090449680871908E-03,  4.911689309971745E+02,  1.472487411168753E+08, -1.843505496621949E-01,
2454450.500000000, A.D. 2007-Dec-16 00:00:00.0000,  1.660432583749608E+07,  1.462938482655428E+08, -2.763062737561762E+03, -3.008948918118373E+01,  3.237009617748523E+00, -1.083625516126174E-03,  4.911168478901914E+02,  1.472331269942125E+08, -1.770055851770498E-01,
2454451.500000000, A.D. 2007-Dec-17 00:00:00.0000,  1.400226991401411E+07,  1.465507622715255E+08, -2.854251297831535E+03, -3.014168613831590E+01,  2.709998431115852E+00, -1.017076632862213E-03,  4.910669557660433E+02,  1.472181697116794E+08, -1.691345999159148E-01,
2454452.500000000, A.D. 2007-Dec-18 00:00:00.0000,  1.139611730713223E+07,  1.467621266439227E+08, -2.937058871991932E+03, -3.018434144642333E+01,  2.182661639283078E+00, -8.897255251872904E-04,  4.910194153691972E+02,  1.472039174592546E+08, -1.606766302944974E-01,
2454453.500000000, A.D. 2007-Dec-19 00:00:00.0000,  8.786686298505858E+06,  1.469279235892203E+08, -3.006317536175251E+03, -3.021760245623709E+01,  1.655232655637509E+00, -7.042567167011571E-04,  4.909744023863066E+02,  1.471904229064719E+08, -1.515906658069999E-01,
2454454.500000000, A.D. 2007-Dec-20 00:00:00.0000,  6.174781043586207E+06,  1.470481537202224E+08, -3.057288029640913E+03, -3.024164739646255E+01,  1.127901451680651E+00, -4.680513173255241E-04,  4.909321000651254E+02,  1.471777409896259E+08, -1.418674009475439E-01,
2454455.500000000, A.D. 2007-Dec-21 00:00:00.0000,  3.561189408653364E+06,  1.471228316115152E+08, -3.086095852851868E+03, -3.025667201742492E+01,  6.007988212385386E-01, -1.937920599762166E-04,  4.908926882040476E+02,  1.471659256109190E+08, -1.315421042041860E-01,
2454456.500000000, A.D. 2007-Dec-22 00:00:00.0000,  9.466824076366811E+05,  1.471519801625620E+08, -3.090186334758997E+03, -3.026286592978051E+01,  7.398573241831331E-02,  1.007961376629368E-04,  4.908563288148571E+02,  1.471550253402622E+08, -1.207038361188572E-01,
2454457.500000000, A.D. 2007-Dec-23 00:00:00.0000, -1.667983957553308E+06,  1.471356245364793E+08, -3.068702501155436E+03, -3.026038165916443E+01, -4.525446404855080E-01,  3.945202869700404E-04,  4.908231504170484E+02,  1.471450787068307E+08, -1.094947143581402E-01,
2454458.500000000, A.D. 2007-Dec-24 00:00:00.0000, -4.282064177845749E+06,  1.470737870176265E+08, -3.022669071577489E+03, -3.024930549992956E+01, -9.788474173727256E-01,  6.655662036621490E-04,  4.907932345360580E+02,  1.471361101513353E+08, -9.809509777314625E-02,
2454459.500000000, A.D. 2007-Dec-25 00:00:00.0000, -6.894816703946779E+06,  1.469664842340960E+08, -2.954900637179613E+03, -3.022964183232005E+01, -1.504992048249788E+00,  8.948560715886789E-04,  4.907666083269096E+02,  1.471281278146475E+08, -8.669690497261043E-02,
2454460.500000000, A.D. 2007-Dec-26 00:00:00.0000, -9.505496923426054E+06,  1.468137275563914E+08, -2.869640227563679E+03, -3.020131787114643E+01, -2.031025038496062E+00,  1.068736571150475E-03,  4.907432455715226E+02,  1.471211238367843E+08, -7.547404024444275E-02,
2454461.500000000, A.D. 2007-Dec-27 00:00:00.0000, -1.211335136565247E+07,  1.466155263761897E+08, -2.772029051251709E+03, -3.016420606251135E+01, -2.556942429340099E+00,  1.180111401661521E-03,  4.907230753006103E+02,  1.471150769416890E+08, -6.456059405274524E-02,
2454462.500000000, A.D. 2007-Dec-28 00:00:00.0000, -1.471761424244143E+07,  1.463718930527893E+08, -2.667551563411951E+03, -3.011815375115346E+01, -3.082679149013109E+00,  1.227936825279885E-03,  4.907059947847720E+02,  1.471099563318620E+08, -5.404268742384423E-02,
